ORBCOMM-X               
1 21576U 91050C   25323.11053489  .00000427  00000+0  13913-3 0  9994
2 21576  98.3263  26.4191 0004787  82.5362 277.6373 14.43407866804469
ORBCOMM FM01            
1 23545U 95017A   25323.63641237  .00009639  00000+0  94158-3 0  9994
2 23545  69.9641  45.9013 0001632   3.9674 356.1494 14.92629922635685
ORBCOMM FM02            
1 23546U 95017B   25323.73429439  .00010208  00000+0  96153-3 0  9995
2 23546  69.9647  64.4142 0002490  39.5099 320.6239 14.94049630635362
ORBCOMM FM08            
1 25112U 97084A   25323.76066352  .00001893  00000+0  56090-3 0  9992
2 25112  45.0142 340.7250 0008089 305.9239  54.0862 14.46469548463892
ORBCOMM FM10            
1 25113U 97084B   25323.76568445  .00001639  00000+0  49360-3 0  9993
2 25113  45.0157 343.3647 0007005 278.8717  81.1341 14.46226875639032
ORBCOMM FM11            
1 25114U 97084C   25323.79762776  .00001700  00000+0  51304-3 0  9990
2 25114  45.0141 344.1319 0007779 279.9738  80.0236 14.45966862463991
ORBCOMM FM12            
1 25115U 97084D   25323.75794518  .00001716  00000+0  51743-3 0  9990
2 25115  45.0148 344.0572 0006886 277.4838  82.5232 14.45991459463781
ORBCOMM FM09            
1 25116U 97084E   25323.39005801  .00001660  00000+0  50325-3 0  9994
2 25116  45.0153 346.9218 0008053 267.7603  92.2326 14.45839420463934
