<?xml version="1.0" encoding="UTF-8"?>
<ndm xmlns:xsi="http://www.w3.org/2001/XMLSchema-instance" xsi:noNamespaceSchemaLocation="https://sanaregistry.org/r/ndmxml_unqualified/ndmxml-2.0.0-master-2.0.xsd">
<omm id="CCSDS_OMM_VERS" version="2.0">
<header><CREATION_DATE/><ORIGINATOR/></header><body><segment><metadata><OBJECT_NAME>ORBCOMM-X</OBJECT_NAME><OBJECT_ID>1991-050C</OBJECT_ID><CENTER_NAME>EARTH</CENTER_NAME><REF_FRAME>TEME</REF_FRAME><TIME_SYSTEM>UTC</TIME_SYSTEM><MEAN_ELEMENT_THEORY>SGP4</MEAN_ELEMENT_THEORY></metadata><data><meanElements><EPOCH>2025-11-19T02:39:10.214496</EPOCH><MEAN_MOTION>14.43407866</MEAN_MOTION><ECCENTRICITY>.0004787</ECCENTRICITY><INCLINATION>98.3263</INCLINATION><RA_OF_ASC_NODE>26.4191</RA_OF_ASC_NODE><ARG_OF_PERICENTER>82.5362</ARG_OF_PERICENTER><MEAN_ANOMALY>277.6373</MEAN_ANOMALY></meanElements><tleParameters><EPHEMERIS_TYPE>0</EPHEMERIS_TYPE><CLASSIFICATION_TYPE>U</CLASSIFICATION_TYPE><NORAD_CAT_ID>21576</NORAD_CAT_ID><ELEMENT_SET_NO>999</ELEMENT_SET_NO><REV_AT_EPOCH>80446</REV_AT_EPOCH><BSTAR>.1391335E-3</BSTAR><MEAN_MOTION_DOT>.427E-5</MEAN_MOTION_DOT><MEAN_MOTION_DDOT>0</MEAN_MOTION_DDOT></tleParameters></data></segment></body></omm>
<omm id="CCSDS_OMM_VERS" version="2.0">
<header><CREATION_DATE/><ORIGINATOR/></header><body><segment><metadata><OBJECT_NAME>ORBCOMM FM01</OBJECT_NAME><OBJECT_ID>1995-017A</OBJECT_ID><CENTER_NAME>EARTH</CENTER_NAME><REF_FRAME>TEME</REF_FRAME><TIME_SYSTEM>UTC</TIME_SYSTEM><MEAN_ELEMENT_THEORY>SGP4</MEAN_ELEMENT_THEORY></metadata><data><meanElements><EPOCH>2025-11-19T15:16:26.028768</EPOCH><MEAN_MOTION>14.92629922</MEAN_MOTION><ECCENTRICITY>.0001632</ECCENTRICITY><INCLINATION>69.9641</INCLINATION><RA_OF_ASC_NODE>45.9013</RA_OF_ASC_NODE><ARG_OF_PERICENTER>3.9674</ARG_OF_PERICENTER><MEAN_ANOMALY>356.1494</MEAN_ANOMALY></meanElements><tleParameters><EPHEMERIS_TYPE>0</EPHEMERIS_TYPE><CLASSIFICATION_TYPE>U</CLASSIFICATION_TYPE><NORAD_CAT_ID>23545</NORAD_CAT_ID><ELEMENT_SET_NO>999</ELEMENT_SET_NO><REV_AT_EPOCH>63568</REV_AT_EPOCH><BSTAR>.94158E-3</BSTAR><MEAN_MOTION_DOT>.9639E-4</MEAN_MOTION_DOT><MEAN_MOTION_DDOT>0</MEAN_MOTION_DDOT></tleParameters></data></segment></body></omm>
<omm id="CCSDS_OMM_VERS" version="2.0">
<header><CREATION_DATE/><ORIGINATOR/></header><body><segment><metadata><OBJECT_NAME>ORBCOMM FM02</OBJECT_NAME><OBJECT_ID>1995-017B</OBJECT_ID><CENTER_NAME>EARTH</CENTER_NAME><REF_FRAME>TEME</REF_FRAME><TIME_SYSTEM>UTC</TIME_SYSTEM><MEAN_ELEMENT_THEORY>SGP4</MEAN_ELEMENT_THEORY></metadata><data><meanElements><EPOCH>2025-11-19T17:37:23.035296</EPOCH><MEAN_MOTION>14.94049630</MEAN_MOTION><ECCENTRICITY>.00024909</ECCENTRICITY><INCLINATION>69.9647</INCLINATION><RA_OF_ASC_NODE>64.4142</RA_OF_ASC_NODE><ARG_OF_PERICENTER>39.5099</ARG_OF_PERICENTER><MEAN_ANOMALY>320.6239</MEAN_ANOMALY></meanElements><tleParameters><EPHEMERIS_TYPE>0</EPHEMERIS_TYPE><CLASSIFICATION_TYPE>U</CLASSIFICATION_TYPE><NORAD_CAT_ID>23546</NORAD_CAT_ID><ELEMENT_SET_NO>999</ELEMENT_SET_NO><REV_AT_EPOCH>63536</REV_AT_EPOCH><BSTAR>.96153492E-3</BSTAR><MEAN_MOTION_DOT>.10208E-3</MEAN_MOTION_DOT><MEAN_MOTION_DDOT>0</MEAN_MOTION_DDOT></tleParameters></data></segment></body></omm>
<omm id="CCSDS_OMM_VERS" version="2.0">
<header><CREATION_DATE/><ORIGINATOR/></header><body><segment><metadata><OBJECT_NAME>ORBCOMM FM08</OBJECT_NAME><OBJECT_ID>1997-084A</OBJECT_ID><CENTER_NAME>EARTH</CENTER_NAME><REF_FRAME>TEME</REF_FRAME><TIME_SYSTEM>UTC</TIME_SYSTEM><MEAN_ELEMENT_THEORY>SGP4</MEAN_ELEMENT_THEORY></metadata><data><meanElements><EPOCH>2025-11-19T18:15:21.328128</EPOCH><MEAN_MOTION>14.46469548</MEAN_MOTION><ECCENTRICITY>.00080895</ECCENTRICITY><INCLINATION>45.0142</INCLINATION><RA_OF_ASC_NODE>340.7250</RA_OF_ASC_NODE><ARG_OF_PERICENTER>305.9239</ARG_OF_PERICENTER><MEAN_ANOMALY>54.0862</MEAN_ANOMALY></meanElements><tleParameters><EPHEMERIS_TYPE>0</EPHEMERIS_TYPE><CLASSIFICATION_TYPE>U</CLASSIFICATION_TYPE><NORAD_CAT_ID>25112</NORAD_CAT_ID><ELEMENT_SET_NO>999</ELEMENT_SET_NO><REV_AT_EPOCH>46389</REV_AT_EPOCH><BSTAR>.56090449E-3</BSTAR><MEAN_MOTION_DOT>.1893E-4</MEAN_MOTION_DOT><MEAN_MOTION_DDOT>0</MEAN_MOTION_DDOT></tleParameters></data></segment></body></omm>
<omm id="CCSDS_OMM_VERS" version="2.0">
<header><CREATION_DATE/><ORIGINATOR/></header><body><segment><metadata><OBJECT_NAME>ORBCOMM FM10</OBJECT_NAME><OBJECT_ID>1997-084B</OBJECT_ID><CENTER_NAME>EARTH</CENTER_NAME><REF_FRAME>TEME</REF_FRAME><TIME_SYSTEM>UTC</TIME_SYSTEM><MEAN_ELEMENT_THEORY>SGP4</MEAN_ELEMENT_THEORY></metadata><data><meanElements><EPOCH>2025-11-19T18:22:35.136480</EPOCH><MEAN_MOTION>14.46226875</MEAN_MOTION><ECCENTRICITY>.00070059</ECCENTRICITY><INCLINATION>45.0157</INCLINATION><RA_OF_ASC_NODE>343.3647</RA_OF_ASC_NODE><ARG_OF_PERICENTER>278.8717</ARG_OF_PERICENTER><MEAN_ANOMALY>81.1341</MEAN_ANOMALY></meanElements><tleParameters><EPHEMERIS_TYPE>0</EPHEMERIS_TYPE><CLASSIFICATION_TYPE>U</CLASSIFICATION_TYPE><NORAD_CAT_ID>25113</NORAD_CAT_ID><ELEMENT_SET_NO>999</ELEMENT_SET_NO><REV_AT_EPOCH>63903</REV_AT_EPOCH><BSTAR>.4935976E-3</BSTAR><MEAN_MOTION_DOT>.1639E-4</MEAN_MOTION_DOT><MEAN_MOTION_DDOT>0</MEAN_MOTION_DDOT></tleParameters></data></segment></body></omm>
<omm id="CCSDS_OMM_VERS" version="2.0">
<header><CREATION_DATE/><ORIGINATOR/></header><body><segment><metadata><OBJECT_NAME>ORBCOMM FM11</OBJECT_NAME><OBJECT_ID>1997-084C</OBJECT_ID><CENTER_NAME>EARTH</CENTER_NAME><REF_FRAME>TEME</REF_FRAME><TIME_SYSTEM>UTC</TIME_SYSTEM><MEAN_ELEMENT_THEORY>SGP4</MEAN_ELEMENT_THEORY></metadata><data><meanElements><EPOCH>2025-11-19T19:08:35.038464</EPOCH><MEAN_MOTION>14.45966862</MEAN_MOTION><ECCENTRICITY>.00077793</ECCENTRICITY><INCLINATION>45.0141</INCLINATION><RA_OF_ASC_NODE>344.1319</RA_OF_ASC_NODE><ARG_OF_PERICENTER>279.9738</ARG_OF_PERICENTER><MEAN_ANOMALY>80.0236</MEAN_ANOMALY></meanElements><tleParameters><EPHEMERIS_TYPE>0</EPHEMERIS_TYPE><CLASSIFICATION_TYPE>U</CLASSIFICATION_TYPE><NORAD_CAT_ID>25114</NORAD_CAT_ID><ELEMENT_SET_NO>999</ELEMENT_SET_NO><REV_AT_EPOCH>46399</REV_AT_EPOCH><BSTAR>.51303864E-3</BSTAR><MEAN_MOTION_DOT>.17E-4</MEAN_MOTION_DOT><MEAN_MOTION_DDOT>0</MEAN_MOTION_DDOT></tleParameters></data></segment></body></omm>
<omm id="CCSDS_OMM_VERS" version="2.0">
<header><CREATION_DATE/><ORIGINATOR/></header><body><segment><metadata><OBJECT_NAME>ORBCOMM FM12</OBJECT_NAME><OBJECT_ID>1997-084D</OBJECT_ID><CENTER_NAME>EARTH</CENTER_NAME><REF_FRAME>TEME</REF_FRAME><TIME_SYSTEM>UTC</TIME_SYSTEM><MEAN_ELEMENT_THEORY>SGP4</MEAN_ELEMENT_THEORY></metadata><data><meanElements><EPOCH>2025-11-19T18:11:26.463552</EPOCH><MEAN_MOTION>14.45991459</MEAN_MOTION><ECCENTRICITY>.00068861</ECCENTRICITY><INCLINATION>45.0148</INCLINATION><RA_OF_ASC_NODE>344.0572</RA_OF_ASC_NODE><ARG_OF_PERICENTER>277.4838</ARG_OF_PERICENTER><MEAN_ANOMALY>82.5232</MEAN_ANOMALY></meanElements><tleParameters><EPHEMERIS_TYPE>0</EPHEMERIS_TYPE><CLASSIFICATION_TYPE>U</CLASSIFICATION_TYPE><NORAD_CAT_ID>25115</NORAD_CAT_ID><ELEMENT_SET_NO>999</ELEMENT_SET_NO><REV_AT_EPOCH>46378</REV_AT_EPOCH><BSTAR>.51742624E-3</BSTAR><MEAN_MOTION_DOT>.1716E-4</MEAN_MOTION_DOT><MEAN_MOTION_DDOT>0</MEAN_MOTION_DDOT></tleParameters></data></segment></body></omm>
<omm id="CCSDS_OMM_VERS" version="2.0">
<header><CREATION_DATE/><ORIGINATOR/></header><body><segment><metadata><OBJECT_NAME>ORBCOMM FM09</OBJECT_NAME><OBJECT_ID>1997-084E</OBJECT_ID><CENTER_NAME>EARTH</CENTER_NAME><REF_FRAME>TEME</REF_FRAME><TIME_SYSTEM>UTC</TIME_SYSTEM><MEAN_ELEMENT_THEORY>SGP4</MEAN_ELEMENT_THEORY></metadata><data><meanElements><EPOCH>2025-11-19T09:21:41.012064</EPOCH><MEAN_MOTION>14.45839420</MEAN_MOTION><ECCENTRICITY>.00080533</ECCENTRICITY><INCLINATION>45.0153</INCLINATION><RA_OF_ASC_NODE>346.9218</RA_OF_ASC_NODE><ARG_OF_PERICENTER>267.7603</ARG_OF_PERICENTER><MEAN_ANOMALY>92.2326</MEAN_ANOMALY></meanElements><tleParameters><EPHEMERIS_TYPE>0</EPHEMERIS_TYPE><CLASSIFICATION_TYPE>U</CLASSIFICATION_TYPE><NORAD_CAT_ID>25116</NORAD_CAT_ID><ELEMENT_SET_NO>999</ELEMENT_SET_NO><REV_AT_EPOCH>46393</REV_AT_EPOCH><BSTAR>.50324675E-3</BSTAR><MEAN_MOTION_DOT>.166E-4</MEAN_MOTION_DOT><MEAN_MOTION_DDOT>0</MEAN_MOTION_DDOT></tleParameters></data></segment></body></omm>

</ndm>
